{"fetched_at":"2026-03-29T02:12:04Z","count":15717,"tles":[{"name":"STARLINK-32652","line1":"1 62234U 24231S   26087.53451170  .00038558  00000+0  13071-2 0  9990","line2":"2 62234  53.1590 132.0935 0001022  85.5398 274.5720 15.30202937 74648","category":"Starlink"}]}